ONEWEB-0018             
1 45434U 20020L   26125.26283301  .00000580  00000+0  16013-2 0  9990
2 45434  87.8924  29.6020 0002122  72.3279 287.8080 13.11417070297002
ONEWEB-0083             
1 45435U 20020M   26125.25276766 -.00019123  00000+0 -54027-1 0  9998
2 45435  87.8931  29.5948 0002281  67.6733 292.4637 13.11513495297049
ONEWEB-0095             
1 45436U 20020N   26125.16800654  .00000220  00000+0  58527-3 0  9995
2 45436  87.8934  29.6201 0001291 100.6697 259.4577 13.11422484297035
ONEWEB-0092             
1 45437U 20020P   26125.21384752 -.00000339  00000+0 -98408-3 0  9993
2 45437  87.8933  29.6094 0001710  89.2145 270.9179 13.11951800297159
ONEWEB-0085             
1 45438U 20020Q   26125.25250141 -.00001558  00000+0 -44311-2 0  9999
2 45438  87.8920  29.6054 0001803  78.5146 281.6184 13.11430203297049
ONEWEB-0096             
1 45439U 20020R   26125.25433956  .00000572  00000+0  15778-2 0  9995
2 45439  87.8933  29.5967 0001860  79.6903 280.4435 13.11420234297030
ONEWEB-0037             
1 45440U 20020S   26125.22752045 -.00000359  00000+0 -10414-2 0  9994
2 45440  87.8943  29.5791 0001740  82.2140 277.9185 13.11910004297063
ONEWEB-0042             
1 45441U 20020T   26125.16773520  .00000176  00000+0  45945-3 0  9992
2 45441  87.8933  29.6107 0001886  80.7571 279.3771 13.11420215297020
ONEWEB-0098             
1 45442U 20020U   26125.16363511  .00000041  00000+0  80620-4 0  9999
2 45442  87.8947  29.6202 0001864  76.2406 283.8929 13.11419581297002
ONEWEB-0055             
1 45443U 20020V   26125.21926335 -.00000442  00000+0 -12735-2 0  9992
2 45443  87.8930  29.6088 0001842  72.7934 287.3396 13.11919562296987
ONEWEB-0093             
1 45444U 20020W   26125.27483689  .00000304  00000+0  82326-3 0  9998
2 45444  87.8925  29.5902 0002140  85.0128 275.1244 13.11414819297051
ONEWEB-0029             
1 45445U 20020X   26125.21642463 -.00000459  00000+0 -13415-2 0  9995
2 45445  87.8920  29.6108 0001949  81.3914 278.7435 13.10885503297023
ONEWEB-0068             
1 45446U 20020Y   26125.27455931  .00000242  00000+0  64681-3 0  9994
2 45446  87.8932  29.5937 0002006  79.8846 280.2508 13.11416049296975
ONEWEB-0046             
1 45447U 20020Z   26125.26621671  .00000558  00000+0  15393-2 0  9995
2 45447  87.8932  29.6025 0001931  86.6539 273.4810 13.11417712296985
ONEWEB-0063             
1 45448U 20020AA  26125.21873376 -.00000427  00000+0 -12408-2 0  9993
2 45448  87.8931  29.6092 0001738  87.0276 273.1051 13.11417468297069
ONEWEB-0019             
1 45449U 20020AB  26125.25760069  .00000575  00000+0  15872-2 0  9992
2 45449  87.8925  29.5910 0001738  73.8532 286.2787 13.11418842296910
