[{"OBJECT_NAME":"ONEWEB-0018","OBJECT_ID":"2020-020L","EPOCH":"2026-05-05T06:18:28.772064","MEAN_MOTION":13.1141707,"ECCENTRICITY":0.0002122,"INCLINATION":87.8924,"RA_OF_ASC_NODE":29.602,"ARG_OF_PERICENTER":72.3279,"MEAN_ANOMALY":287.808,"EPHEMERIS_TYPE":0,"CLASSIFICATION_TYPE":"U","NORAD_CAT_ID":45434,"ELEMENT_SET_NO":999,"REV_AT_EPOCH":29700,"BSTAR":0.0016013,"MEAN_MOTION_DOT":5.8e-06,"MEAN_MOTION_DDOT":0.0},{"OBJECT_NAME":"ONEWEB-0083","OBJECT_ID":"2020-020M","EPOCH":"2026-05-05T06:03:59.125824","MEAN_MOTION":13.11513495,"ECCENTRICITY":0.0002281,"INCLINATION":87.8931,"RA_OF_ASC_NODE":29.5948,"ARG_OF_PERICENTER":67.6733,"MEAN_ANOMALY":292.4637,"EPHEMERIS_TYPE":0,"CLASSIFICATION_TYPE":"U","NORAD_CAT_ID":45435,"ELEMENT_SET_NO":999,"REV_AT_EPOCH":29704,"BSTAR":-0.054027000000000006,"MEAN_MOTION_DOT":-0.00019123,"MEAN_MOTION_DDOT":0.0},{"OBJECT_NAME":"ONEWEB-0095","OBJECT_ID":"2020-020N","EPOCH":"2026-05-05T04:01:55.765056","MEAN_MOTION":13.11422484,"ECCENTRICITY":0.0001291,"INCLINATION":87.8934,"RA_OF_ASC_NODE":29.6201,"ARG_OF_PERICENTER":100.6697,"MEAN_ANOMALY":259.4577,"EPHEMERIS_TYPE":0,"CLASSIFICATION_TYPE":"U","NORAD_CAT_ID":45436,"ELEMENT_SET_NO":999,"REV_AT_EPOCH":29703,"BSTAR":0.0005852699999999999,"MEAN_MOTION_DOT":2.2e-06,"MEAN_MOTION_DDOT":0.0},{"OBJECT_NAME":"ONEWEB-0092","OBJECT_ID":"2020-020P","EPOCH":"2026-05-05T05:07:56.425728","MEAN_MOTION":13.119518,"ECCENTRICITY":0.000171,"INCLINATION":87.8933,"RA_OF_ASC_NODE":29.6094,"ARG_OF_PERICENTER":89.2145,"MEAN_ANOMALY":270.9179,"EPHEMERIS_TYPE":0,"CLASSIFICATION_TYPE":"U","NORAD_CAT_ID":45437,"ELEMENT_SET_NO":999,"REV_AT_EPOCH":29715,"BSTAR":-0.00098408,"MEAN_MOTION_DOT":-3.39e-06,"MEAN_MOTION_DDOT":0.0},{"OBJECT_NAME":"ONEWEB-0085","OBJECT_ID":"2020-020Q","EPOCH":"2026-05-05T06:03:36.121824","MEAN_MOTION":13.11430203,"ECCENTRICITY":0.0001803,"INCLINATION":87.892,"RA_OF_ASC_NODE":29.6054,"ARG_OF_PERICENTER":78.5146,"MEAN_ANOMALY":281.6184,"EPHEMERIS_TYPE":0,"CLASSIFICATION_TYPE":"U","NORAD_CAT_ID":45438,"ELEMENT_SET_NO":999,"REV_AT_EPOCH":29704,"BSTAR":-0.0044311,"MEAN_MOTION_DOT":-1.558e-05,"MEAN_MOTION_DDOT":0.0},{"OBJECT_NAME":"ONEWEB-0096","OBJECT_ID":"2020-020R","EPOCH":"2026-05-05T06:06:14.937984","MEAN_MOTION":13.11420234,"ECCENTRICITY":0.000186,"INCLINATION":87.8933,"RA_OF_ASC_NODE":29.5967,"ARG_OF_PERICENTER":79.6903,"MEAN_ANOMALY":280.4435,"EPHEMERIS_TYPE":0,"CLASSIFICATION_TYPE":"U","NORAD_CAT_ID":45439,"ELEMENT_SET_NO":999,"REV_AT_EPOCH":29703,"BSTAR":0.0015778,"MEAN_MOTION_DOT":5.72e-06,"MEAN_MOTION_DDOT":0.0},{"OBJECT_NAME":"ONEWEB-0037","OBJECT_ID":"2020-020S","EPOCH":"2026-05-05T05:27:37.766880","MEAN_MOTION":13.11910004,"ECCENTRICITY":0.000174,"INCLINATION":87.8943,"RA_OF_ASC_NODE":29.5791,"ARG_OF_PERICENTER":82.214,"MEAN_ANOMALY":277.9185,"EPHEMERIS_TYPE":0,"CLASSIFICATION_TYPE":"U","NORAD_CAT_ID":45440,"ELEMENT_SET_NO":999,"REV_AT_EPOCH":29706,"BSTAR":-0.0010414,"MEAN_MOTION_DOT":-3.59e-06,"MEAN_MOTION_DDOT":0.0},{"OBJECT_NAME":"ONEWEB-0042","OBJECT_ID":"2020-020T","EPOCH":"2026-05-05T04:01:32.321280","MEAN_MOTION":13.11420215,"ECCENTRICITY":0.0001886,"INCLINATION":87.8933,"RA_OF_ASC_NODE":29.6107,"ARG_OF_PERICENTER":80.7571,"MEAN_ANOMALY":279.3771,"EPHEMERIS_TYPE":0,"CLASSIFICATION_TYPE":"U","NORAD_CAT_ID":45441,"ELEMENT_SET_NO":999,"REV_AT_EPOCH":29702,"BSTAR":0.00045945000000000003,"MEAN_MOTION_DOT":1.76e-06,"MEAN_MOTION_DDOT":0.0},{"OBJECT_NAME":"ONEWEB-0098","OBJECT_ID":"2020-020U","EPOCH":"2026-05-05T03:55:38.073504","MEAN_MOTION":13.11419581,"ECCENTRICITY":0.0001864,"INCLINATION":87.8947,"RA_OF_ASC_NODE":29.6202,"ARG_OF_PERICENTER":76.2406,"MEAN_ANOMALY":283.8929,"EPHEMERIS_TYPE":0,"CLASSIFICATION_TYPE":"U","NORAD_CAT_ID":45442,"ELEMENT_SET_NO":999,"REV_AT_EPOCH":29700,"BSTAR":8.062000000000001e-05,"MEAN_MOTION_DOT":4.1e-07,"MEAN_MOTION_DDOT":0.0},{"OBJECT_NAME":"ONEWEB-0055","OBJECT_ID":"2020-020V","EPOCH":"2026-05-05T05:15:44.353440","MEAN_MOTION":13.11919562,"ECCENTRICITY":0.0001842,"INCLINATION":87.893,"RA_OF_ASC_NODE":29.6088,"ARG_OF_PERICENTER":72.7934,"MEAN_ANOMALY":287.3396,"EPHEMERIS_TYPE":0,"CLASSIFICATION_TYPE":"U","NORAD_CAT_ID":45443,"ELEMENT_SET_NO":999,"REV_AT_EPOCH":29698,"BSTAR":-0.0012735,"MEAN_MOTION_DOT":-4.42e-06,"MEAN_MOTION_DDOT":0.0},{"OBJECT_NAME":"ONEWEB-0093","OBJECT_ID":"2020-020W","EPOCH":"2026-05-05T06:35:45.907296","MEAN_MOTION":13.11414819,"ECCENTRICITY":0.000214,"INCLINATION":87.8925,"RA_OF_ASC_NODE":29.5902,"ARG_OF_PERICENTER":85.0128,"MEAN_ANOMALY":275.1244,"EPHEMERIS_TYPE":0,"CLASSIFICATION_TYPE":"U","NORAD_CAT_ID":45444,"ELEMENT_SET_NO":999,"REV_AT_EPOCH":29705,"BSTAR":0.00082326,"MEAN_MOTION_DOT":3.04e-06,"MEAN_MOTION_DDOT":0.0},{"OBJECT_NAME":"ONEWEB-0029","OBJECT_ID":"2020-020X","EPOCH":"2026-05-05T05:11:39.088032","MEAN_MOTION":13.10885503,"ECCENTRICITY":0.0001949,"INCLINATION":87.892,"RA_OF_ASC_NODE":29.6108,"ARG_OF_PERICENTER":81.3914,"MEAN_ANOMALY":278.7435,"EPHEMERIS_TYPE":0,"CLASSIFICATION_TYPE":"U","NORAD_CAT_ID":45445,"ELEMENT_SET_NO":999,"REV_AT_EPOCH":29702,"BSTAR":-0.0013415,"MEAN_MOTION_DOT":-4.59e-06,"MEAN_MOTION_DDOT":0.0},{"OBJECT_NAME":"ONEWEB-0068","OBJECT_ID":"2020-020Y","EPOCH":"2026-05-05T06:35:21.924384","MEAN_MOTION":13.11416049,"ECCENTRICITY":0.0002006,"INCLINATION":87.8932,"RA_OF_ASC_NODE":29.5937,"ARG_OF_PERICENTER":79.8846,"MEAN_ANOMALY":280.2508,"EPHEMERIS_TYPE":0,"CLASSIFICATION_TYPE":"U","NORAD_CAT_ID":45446,"ELEMENT_SET_NO":999,"REV_AT_EPOCH":29697,"BSTAR":0.00064681,"MEAN_MOTION_DOT":2.42e-06,"MEAN_MOTION_DDOT":0.0},{"OBJECT_NAME":"ONEWEB-0046","OBJECT_ID":"2020-020Z","EPOCH":"2026-05-05T06:23:21.123744","MEAN_MOTION":13.11417712,"ECCENTRICITY":0.0001931,"INCLINATION":87.8932,"RA_OF_ASC_NODE":29.6025,"ARG_OF_PERICENTER":86.6539,"MEAN_ANOMALY":273.481,"EPHEMERIS_TYPE":0,"CLASSIFICATION_TYPE":"U","NORAD_CAT_ID":45447,"ELEMENT_SET_NO":999,"REV_AT_EPOCH":29698,"BSTAR":0.0015393000000000002,"MEAN_MOTION_DOT":5.58e-06,"MEAN_MOTION_DDOT":0.0},{"OBJECT_NAME":"ONEWEB-0063","OBJECT_ID":"2020-020AA","EPOCH":"2026-05-05T05:14:58.596864","MEAN_MOTION":13.11417468,"ECCENTRICITY":0.0001738,"INCLINATION":87.8931,"RA_OF_ASC_NODE":29.6092,"ARG_OF_PERICENTER":87.0276,"MEAN_ANOMALY":273.1051,"EPHEMERIS_TYPE":0,"CLASSIFICATION_TYPE":"U","NORAD_CAT_ID":45448,"ELEMENT_SET_NO":999,"REV_AT_EPOCH":29706,"BSTAR":-0.0012408,"MEAN_MOTION_DOT":-4.27e-06,"MEAN_MOTION_DDOT":0.0},{"OBJECT_NAME":"ONEWEB-0019","OBJECT_ID":"2020-020AB","EPOCH":"2026-05-05T06:10:56.699616","MEAN_MOTION":13.11418842,"ECCENTRICITY":0.0001738,"INCLINATION":87.8925,"RA_OF_ASC_NODE":29.591,"ARG_OF_PERICENTER":73.8532,"MEAN_ANOMALY":286.2787,"EPHEMERIS_TYPE":0,"CLASSIFICATION_TYPE":"U","NORAD_CAT_ID":45449,"ELEMENT_SET_NO":999,"REV_AT_EPOCH":29691,"BSTAR":0.0015872,"MEAN_MOTION_DOT":5.75e-06,"MEAN_MOTION_DDOT":0.0}]